{"type": "FeatureCollection", "features": [ {"type": "Feature", "properties": {"norad_id": 42987, "name": "SKYSAT-C11", "group": "resource", "lat": 45.46896961330064, "lon": -39.91443346319877, "alt_km": 418.7781390354694, "timestamp": "2025-12-20T18:51:31.375550+00:00", "meta": {"OBJECT_NAME": "SKYSAT-C11", "OBJECT_ID": "2017-068A", "EPOCH": "2025-12-20T15:10:43.287744", "MEAN_MOTION": 15.47758903, "ECCENTRICITY": 0.00011683, "INCLINATION": 97.4146, "RA_OF_ASC_NODE": 132.3213, "ARG_OF_PERICENTER": 98.5219, "MEAN_ANOMALY": 261.6163, "EPHEMERIS_TYPE": 0, "CLASSIFICATION_TYPE": "U", "NORAD_CAT_ID": 42987, "ELEMENT_SET_NO": 999, "REV_AT_EPOCH": 45553, "BSTAR": 0.00031043229, "MEAN_MOTION_DOT": 0.00016006, "MEAN_MOTION_DDOT": 0}, "tle": {"line1": "1 42987U 17068A   25354.63244546  .00016006  00000+0  31043-3 0  9991", "line2": "2 42987  97.4146 132.3213 0001168  98.5219 261.6163 15.47758903455534"}}, "geometry": {"type": "Point", "coordinates": [-39.91443346319877, 45.46896961330064]}}, {"type": "Feature", "properties": {"norad_id": 42988, "name": "SKYSAT-C10", "group": "resource", "lat": 52.164090716234846, "lon": -44.671911499330236, "alt_km": 461.7943384879227, "timestamp": "2025-12-20T18:51:31.375560+00:00", "meta": {"OBJECT_NAME": "SKYSAT-C10", "OBJECT_ID": "2017-068B", "EPOCH": "2025-12-20T15:10:17.218272", "MEAN_MOTION": 15.32217911, "ECCENTRICITY": 0.00054114, "INCLINATION": 97.4265, "RA_OF_ASC_NODE": 125.5057, "ARG_OF_PERICENTER": 82.0101, "MEAN_ANOMALY": 278.1755, "EPHEMERIS_TYPE": 0, "CLASSIFICATION_TYPE": "U", "NORAD_CAT_ID": 42988, "ELEMENT_SET_NO": 999, "REV_AT_EPOCH": 45500, "BSTAR": 0.00024723858, "MEAN_MOTION_DOT": 7.615e-05, "MEAN_MOTION_DDOT": 0}, "tle": {"line1": "1 42988U 17068B   25354.63214373  .00007615  00000+0  24724-3 0  9991", "line2": "2 42988  97.4265 125.5057 0005411  82.0101 278.1755 15.32217911455005"}}, "geometry": {"type": "Point", "coordinates": [-44.671911499330236, 52.164090716234846]}}, {"type": "Feature", "properties": {"norad_id": 42989, "name": "SKYSAT-C9", "group": "resource", "lat": 82.55778024920592, "lon": 31.217101058307154, "alt_km": 443.4548732524581, "timestamp": "2025-12-20T18:51:31.375571+00:00", "meta": {"OBJECT_NAME": "SKYSAT-C9", "OBJECT_ID": "2017-068C", "EPOCH": "2025-12-20T09:05:14.412192", "MEAN_MOTION": 15.36231902, "ECCENTRICITY": 0.00105072, "INCLINATION": 97.4201, "RA_OF_ASC_NODE": 124.6936, "ARG_OF_PERICENTER": 63.4871, "MEAN_ANOMALY": 296.7449, "EPHEMERIS_TYPE": 0, "CLASSIFICATION_TYPE": "U", "NORAD_CAT_ID": 42989, "ELEMENT_SET_NO": 999, "REV_AT_EPOCH": 45525, "BSTAR": 0.00027592198, "MEAN_MOTION_DOT": 9.68e-05, "MEAN_MOTION_DDOT": 0}, "tle": {"line1": "1 42989U 17068C   25354.37863903  .00009680  00000+0  27592-3 0  9992", "line2": "2 42989  97.4201 124.6936 0010507  63.4871 296.7449 15.36231902455254"}}, "geometry": {"type": "Point", "coordinates": [31.217101058307154, 82.55778024920592]}}, {"type": "Feature", "properties": {"norad_id": 42990, "name": "SKYSAT-C8", "group": "resource", "lat": -29.468360988508504, "lon": 129.04968486741316, "alt_km": 471.9595803215725, "timestamp": "2025-12-20T18:51:31.375581+00:00", "meta": {"OBJECT_NAME": "SKYSAT-C8", "OBJECT_ID": "2017-068D", "EPOCH": "2025-12-20T06:27:22.559040", "MEAN_MOTION": 15.3307619, "ECCENTRICITY": 0.00010761, "INCLINATION": 97.4285, "RA_OF_ASC_NODE": 124.3027, "ARG_OF_PERICENTER": 306.8673, "MEAN_ANOMALY": 53.247, "EPHEMERIS_TYPE": 0, "CLASSIFICATION_TYPE": "U", "NORAD_CAT_ID": 42990, "ELEMENT_SET_NO": 999, "REV_AT_EPOCH": 45486, "BSTAR": 0.00026423589, "MEAN_MOTION_DOT": 8.365e-05, "MEAN_MOTION_DDOT": 0}, "tle": {"line1": "1 42990U 17068D   25354.26901110  .00008365  00000+0  26424-3 0  9997", "line2": "2 42990  97.4285 124.3027 0001076 306.8673  53.2470 15.33076190454860"}}, "geometry": {"type": "Point", "coordinates": [129.04968486741316, -29.468360988508504]}}, {"type": "Feature", "properties": {"norad_id": 42991, "name": "SKYSAT-C7", "group": "resource", "lat": 11.227701361331393, "lon": -52.65934645099674, "alt_km": 473.51201355084504, "timestamp": "2025-12-20T18:51:31.375591+00:00", "meta": {"OBJECT_NAME": "SKYSAT-C7", "OBJECT_ID": "2017-068E", "EPOCH": "2025-12-20T07:09:22.524768", "MEAN_MOTION": 15.32476114, "ECCENTRICITY": 0.0007174, "INCLINATION": 97.4292, "RA_OF_ASC_NODE": 125.367, "ARG_OF_PERICENTER": 33.5088, "MEAN_ANOMALY": 326.6606, "EPHEMERIS_TYPE": 0, "CLASSIFICATION_TYPE": "U", "NORAD_CAT_ID": 42991, "ELEMENT_SET_NO": 999, "REV_AT_EPOCH": 45493, "BSTAR": 0.00025454434, "MEAN_MOTION_DOT": 7.909e-05, "MEAN_MOTION_DDOT": 0}, "tle": {"line1": "1 42991U 17068E   25354.29817737  .00007909  00000+0  25454-3 0  9997", "line2": "2 42991  97.4292 125.3670 0007174  33.5088 326.6606 15.32476114454938"}}, "geometry": {"type": "Point", "coordinates": [-52.65934645099674, 11.227701361331393]}}, {"type": "Feature", "properties": {"norad_id": 42992, "name": "SKYSAT-C6", "group": "resource", "lat": -78.45182926248988, "lon": -93.42316579727242, "alt_km": 481.4776326922247, "timestamp": "2025-12-20T18:51:31.375601+00:00", "meta": {"OBJECT_NAME": "SKYSAT-C6", "OBJECT_ID": "2017-068F", "EPOCH": "2025-12-20T14:35:10.243680", "MEAN_MOTION": 15.31638191, "ECCENTRICITY": 0.00049668, "INCLINATION": 97.4327, "RA_OF_ASC_NODE": 126.1098, "ARG_OF_PERICENTER": 62.0961, "MEAN_ANOMALY": 298.0783, "EPHEMERIS_TYPE": 0, "CLASSIFICATION_TYPE": "U", "NORAD_CAT_ID": 42992, "ELEMENT_SET_NO": 999, "REV_AT_EPOCH": 45496, "BSTAR": 0.0002327987, "MEAN_MOTION_DOT": 7.036e-05, "MEAN_MOTION_DDOT": 0}, "tle": {"line1": "1 42992U 17068F   25354.60775745  .00007036  00000+0  23280-3 0  9991", "line2": "2 42992  97.4327 126.1098 0004966  62.0961 298.0783 15.31638191454969"}}, "geometry": {"type": "Point", "coordinates": [-93.42316579727242, -78.45182926248988]}}, {"type": "Feature", "properties": {"norad_id": 43111, "name": "CARTOSAT-2F", "group": "resource", "lat": 11.572821861215685, "lon": 50.76264603819514, "alt_km": 509.8335129737543, "timestamp": "2025-12-20T18:51:31.375611+00:00", "meta": {"OBJECT_NAME": "CARTOSAT-2F", "OBJECT_ID": "2018-004A", "EPOCH": "2025-12-20T14:03:54.407232", "MEAN_MOTION": 15.1919718, "ECCENTRICITY": 0.0001379, "INCLINATION": 97.431, "RA_OF_ASC_NODE": 52.0977, "ARG_OF_PERICENTER": 109.4948, "MEAN_ANOMALY": 250.6436, "EPHEMERIS_TYPE": 0, "CLASSIFICATION_TYPE": "U", "NORAD_CAT_ID": 43111, "ELEMENT_SET_NO": 999, "REV_AT_EPOCH": 44021, "BSTAR": 0.00028545782, "MEAN_MOTION_DOT": 5.94e-05, "MEAN_MOTION_DDOT": 0}, "tle": {"line1": "1 43111U 18004A   25354.58604638  .00005940  00000+0  28546-3 0  9997", "line2": "2 43111  97.4310  52.0977 0001379 109.4948 250.6436 15.19197180440210"}}, "geometry": {"type": "Point", "coordinates": [50.76264603819514, 11.572821861215685]}}, {"type": "Feature", "properties": {"norad_id": 43259, "name": "GAOFEN-1 02", "group": "resource", "lat": -20.530010455921175, "lon": 55.62805041785656, "alt_km": 647.282507090863, "timestamp": "2025-12-20T18:51:31.375621+00:00", "meta": {"OBJECT_NAME": "GAOFEN-1 02", "OBJECT_ID": "2018-031A", "EPOCH": "2025-12-20T14:04:22.539936", "MEAN_MOTION": 14.76430258, "ECCENTRICITY": 0.00022561, "INCLINATION": 98.0802, "RA_OF_ASC_NODE": 52.379, "ARG_OF_PERICENTER": 186.4069, "MEAN_ANOMALY": 173.7112, "EPHEMERIS_TYPE": 0, "CLASSIFICATION_TYPE": "U", "NORAD_CAT_ID": 43259, "ELEMENT_SET_NO": 999, "REV_AT_EPOCH": 41634, "BSTAR": 0.00011562822, "MEAN_MOTION_DOT": 7.52e-06, "MEAN_MOTION_DDOT": 0}, "tle": {"line1": "1 43259U 18031A   25354.58637199  .00000752  00000+0  11563-3 0  9995", "line2": "2 43259  98.0802  52.3790 0002256 186.4069 173.7112 14.76430258416347"}}, "geometry": {"type": "Point", "coordinates": [55.62805041785656, -20.530010455921175]}}, {"type": "Feature", "properties": {"norad_id": 43260, "name": "GAOFEN-1 03", "group": "resource", "lat": 80.41238946749819, "lon": -70.3119387350963, "alt_km": 634.3235181346199, "timestamp": "2025-12-20T18:51:31.375631+00:00", "meta": {"OBJECT_NAME": "GAOFEN-1 03", "OBJECT_ID": "2018-031B", "EPOCH": "2025-12-20T15:10:34.436928", "MEAN_MOTION": 14.76451481, "ECCENTRICITY": 0.00016995, "INCLINATION": 98.0788, "RA_OF_ASC_NODE": 52.3004, "ARG_OF_PERICENTER": 280.6383, "MEAN_ANOMALY": 79.4635, "EPHEMERIS_TYPE": 0, "CLASSIFICATION_TYPE": "U", "NORAD_CAT_ID": 43260, "ELEMENT_SET_NO": 999, "REV_AT_EPOCH": 41634, "BSTAR": 9.4825915e-05, "MEAN_MOTION_DOT": 6.08e-06, "MEAN_MOTION_DDOT": 0}, "tle": {"line1": "1 43260U 18031B   25354.63234302  .00000608  00000+0  94826-4 0  9996", "line2": "2 43260  98.0788  52.3004 0001699 280.6383  79.4635 14.76451481416349"}}, "geometry": {"type": "Point", "coordinates": [-70.3119387350963, 80.41238946749819]}}, {"type": "Feature", "properties": {"norad_id": 43262, "name": "GAOFEN-1 04", "group": "resource", "lat": -44.174683012119424, "lon": -135.3090448389579, "alt_km": 647.8547922093212, "timestamp": "2025-12-20T18:51:31.375641+00:00", "meta": {"OBJECT_NAME": "GAOFEN-1 04", "OBJECT_ID": "2018-031D", "EPOCH": "2025-12-20T14:35:28.530240", "MEAN_MOTION": 14.76423267, "ECCENTRICITY": 7.397e-05, "INCLINATION": 98.0804, "RA_OF_ASC_NODE": 52.4471, "ARG_OF_PERICENTER": 53.0792, "MEAN_ANOMALY": 307.0486, "EPHEMERIS_TYPE": 0, "CLASSIFICATION_TYPE": "U", "NORAD_CAT_ID": 43262, "ELEMENT_SET_NO": 999, "REV_AT_EPOCH": 41633, "BSTAR": 0.00017937703, "MEAN_MOTION_DOT": 1.195e-05, "MEAN_MOTION_DDOT": 0}, "tle": {"line1": "1 43262U 18031D   25354.60796910  .00001195  00000+0  17938-3 0  9993", "line2": "2 43262  98.0804  52.4471 0000739  53.0792 307.0486 14.76423267416333"}}, "geometry": {"type": "Point", "coordinates": [-135.3090448389579, -44.174683012119424]}}]}